ORBCOMM FM103           
1 40091U 14040F   25081.64155654  .00002841  00000+0  64938-3 0  9992
2 40091  47.0046  66.4716 0002627 260.9064  99.1524 14.57950600551470
ORBCOMM FM114           
1 41179U 15081A   25082.14565295  .00003030  00000+0  68921-3 0  9995
2 41179  47.0034 333.1936 0002470 311.0413  49.0259 14.58015495491966
ORBCOMM FM119           
1 41180U 15081B   25081.85526432  .00003134  00000+0  71278-3 0  9998
2 41180  46.9988 243.8446 0000785 341.6563  18.4293 14.57931470493126
ORBCOMM FM105           
1 41181U 15081C   25081.73268051  .00001371  00000+0  43307-3 0  9999
2 41181  47.0011 240.9969 0002109 281.6264  78.4380 14.45107471488240
ORBCOMM FM110           
1 41182U 15081D   25081.91580239  .00004100  00000+0  91928-3 0  9990
2 41182  47.0026 333.6466 0001633 107.6951 252.4112 14.58028884491751
ORBCOMM FM118           
1 41183U 15081E   25081.96932748  .00004135  00000+0  92815-3 0  9996
2 41183  47.0051 333.8496 0002019 100.2375 259.8738 14.57956873491867
ORBCOMM FM112           
1 41184U 15081F   25081.89994110  .00003710  00000+0  83652-3 0  9997
2 41184  46.9973 242.7940 0001038 301.9591  58.1193 14.57964320493077
ORBCOMM FM113           
1 41185U 15081G   25081.87706454  .00004078  00000+0  91650-3 0  9993
2 41185  46.9989 243.2170 0001050 314.0747  46.0052 14.57923220493050
