<?xml version="1.0" encoding="UTF-8"?>
<ndm xmlns:xsi="http://www.w3.org/2001/XMLSchema-instance" xsi:noNamespaceSchemaLocation="https://sanaregistry.org/r/ndmxml_unqualified/ndmxml-2.0.0-master-2.0.xsd">
<omm id="CCSDS_OMM_VERS" version="2.0">
<header><CREATION_DATE/><ORIGINATOR/></header><body><segment><metadata><OBJECT_NAME>ORBCOMM FM103</OBJECT_NAME><OBJECT_ID>2014-040F</OBJECT_ID><CENTER_NAME>EARTH</CENTER_NAME><REF_FRAME>TEME</REF_FRAME><TIME_SYSTEM>UTC</TIME_SYSTEM><MEAN_ELEMENT_THEORY>SGP4</MEAN_ELEMENT_THEORY></metadata><data><meanElements><EPOCH>2025-03-22T15:23:50.485056</EPOCH><MEAN_MOTION>14.57950600</MEAN_MOTION><ECCENTRICITY>.0002627</ECCENTRICITY><INCLINATION>47.0046</INCLINATION><RA_OF_ASC_NODE>66.4716</RA_OF_ASC_NODE><ARG_OF_PERICENTER>260.9064</ARG_OF_PERICENTER><MEAN_ANOMALY>99.1524</MEAN_ANOMALY></meanElements><tleParameters><EPHEMERIS_TYPE>0</EPHEMERIS_TYPE><CLASSIFICATION_TYPE>U</CLASSIFICATION_TYPE><NORAD_CAT_ID>40091</NORAD_CAT_ID><ELEMENT_SET_NO>999</ELEMENT_SET_NO><REV_AT_EPOCH>55147</REV_AT_EPOCH><BSTAR>.64938E-3</BSTAR><MEAN_MOTION_DOT>.2841E-4</MEAN_MOTION_DOT><MEAN_MOTION_DDOT>0</MEAN_MOTION_DDOT></tleParameters></data></segment></body></omm>
<omm id="CCSDS_OMM_VERS" version="2.0">
<header><CREATION_DATE/><ORIGINATOR/></header><body><segment><metadata><OBJECT_NAME>ORBCOMM FM114</OBJECT_NAME><OBJECT_ID>2015-081A</OBJECT_ID><CENTER_NAME>EARTH</CENTER_NAME><REF_FRAME>TEME</REF_FRAME><TIME_SYSTEM>UTC</TIME_SYSTEM><MEAN_ELEMENT_THEORY>SGP4</MEAN_ELEMENT_THEORY></metadata><data><meanElements><EPOCH>2025-03-23T03:29:44.414880</EPOCH><MEAN_MOTION>14.58015495</MEAN_MOTION><ECCENTRICITY>.000247</ECCENTRICITY><INCLINATION>47.0034</INCLINATION><RA_OF_ASC_NODE>333.1936</RA_OF_ASC_NODE><ARG_OF_PERICENTER>311.0413</ARG_OF_PERICENTER><MEAN_ANOMALY>49.0259</MEAN_ANOMALY></meanElements><tleParameters><EPHEMERIS_TYPE>0</EPHEMERIS_TYPE><CLASSIFICATION_TYPE>U</CLASSIFICATION_TYPE><NORAD_CAT_ID>41179</NORAD_CAT_ID><ELEMENT_SET_NO>999</ELEMENT_SET_NO><REV_AT_EPOCH>49196</REV_AT_EPOCH><BSTAR>.68921E-3</BSTAR><MEAN_MOTION_DOT>.303E-4</MEAN_MOTION_DOT><MEAN_MOTION_DDOT>0</MEAN_MOTION_DDOT></tleParameters></data></segment></body></omm>
<omm id="CCSDS_OMM_VERS" version="2.0">
<header><CREATION_DATE/><ORIGINATOR/></header><body><segment><metadata><OBJECT_NAME>ORBCOMM FM119</OBJECT_NAME><OBJECT_ID>2015-081B</OBJECT_ID><CENTER_NAME>EARTH</CENTER_NAME><REF_FRAME>TEME</REF_FRAME><TIME_SYSTEM>UTC</TIME_SYSTEM><MEAN_ELEMENT_THEORY>SGP4</MEAN_ELEMENT_THEORY></metadata><data><meanElements><EPOCH>2025-03-22T20:31:34.837248</EPOCH><MEAN_MOTION>14.57931470</MEAN_MOTION><ECCENTRICITY>.0000785</ECCENTRICITY><INCLINATION>46.9988</INCLINATION><RA_OF_ASC_NODE>243.8446</RA_OF_ASC_NODE><ARG_OF_PERICENTER>341.6563</ARG_OF_PERICENTER><MEAN_ANOMALY>18.4293</MEAN_ANOMALY></meanElements><tleParameters><EPHEMERIS_TYPE>0</EPHEMERIS_TYPE><CLASSIFICATION_TYPE>U</CLASSIFICATION_TYPE><NORAD_CAT_ID>41180</NORAD_CAT_ID><ELEMENT_SET_NO>999</ELEMENT_SET_NO><REV_AT_EPOCH>49312</REV_AT_EPOCH><BSTAR>.71278E-3</BSTAR><MEAN_MOTION_DOT>.3134E-4</MEAN_MOTION_DOT><MEAN_MOTION_DDOT>0</MEAN_MOTION_DDOT></tleParameters></data></segment></body></omm>
<omm id="CCSDS_OMM_VERS" version="2.0">
<header><CREATION_DATE/><ORIGINATOR/></header><body><segment><metadata><OBJECT_NAME>ORBCOMM FM105</OBJECT_NAME><OBJECT_ID>2015-081C</OBJECT_ID><CENTER_NAME>EARTH</CENTER_NAME><REF_FRAME>TEME</REF_FRAME><TIME_SYSTEM>UTC</TIME_SYSTEM><MEAN_ELEMENT_THEORY>SGP4</MEAN_ELEMENT_THEORY></metadata><data><meanElements><EPOCH>2025-03-22T17:35:03.596064</EPOCH><MEAN_MOTION>14.45107471</MEAN_MOTION><ECCENTRICITY>.0002109</ECCENTRICITY><INCLINATION>47.0011</INCLINATION><RA_OF_ASC_NODE>240.9969</RA_OF_ASC_NODE><ARG_OF_PERICENTER>281.6264</ARG_OF_PERICENTER><MEAN_ANOMALY>78.4380</MEAN_ANOMALY></meanElements><tleParameters><EPHEMERIS_TYPE>0</EPHEMERIS_TYPE><CLASSIFICATION_TYPE>U</CLASSIFICATION_TYPE><NORAD_CAT_ID>41181</NORAD_CAT_ID><ELEMENT_SET_NO>999</ELEMENT_SET_NO><REV_AT_EPOCH>48824</REV_AT_EPOCH><BSTAR>.43307E-3</BSTAR><MEAN_MOTION_DOT>.1371E-4</MEAN_MOTION_DOT><MEAN_MOTION_DDOT>0</MEAN_MOTION_DDOT></tleParameters></data></segment></body></omm>
<omm id="CCSDS_OMM_VERS" version="2.0">
<header><CREATION_DATE/><ORIGINATOR/></header><body><segment><metadata><OBJECT_NAME>ORBCOMM FM110</OBJECT_NAME><OBJECT_ID>2015-081D</OBJECT_ID><CENTER_NAME>EARTH</CENTER_NAME><REF_FRAME>TEME</REF_FRAME><TIME_SYSTEM>UTC</TIME_SYSTEM><MEAN_ELEMENT_THEORY>SGP4</MEAN_ELEMENT_THEORY></metadata><data><meanElements><EPOCH>2025-03-22T21:58:45.326496</EPOCH><MEAN_MOTION>14.58028884</MEAN_MOTION><ECCENTRICITY>.0001633</ECCENTRICITY><INCLINATION>47.0026</INCLINATION><RA_OF_ASC_NODE>333.6466</RA_OF_ASC_NODE><ARG_OF_PERICENTER>107.6951</ARG_OF_PERICENTER><MEAN_ANOMALY>252.4112</MEAN_ANOMALY></meanElements><tleParameters><EPHEMERIS_TYPE>0</EPHEMERIS_TYPE><CLASSIFICATION_TYPE>U</CLASSIFICATION_TYPE><NORAD_CAT_ID>41182</NORAD_CAT_ID><ELEMENT_SET_NO>999</ELEMENT_SET_NO><REV_AT_EPOCH>49175</REV_AT_EPOCH><BSTAR>.91928E-3</BSTAR><MEAN_MOTION_DOT>.41E-4</MEAN_MOTION_DOT><MEAN_MOTION_DDOT>0</MEAN_MOTION_DDOT></tleParameters></data></segment></body></omm>
<omm id="CCSDS_OMM_VERS" version="2.0">
<header><CREATION_DATE/><ORIGINATOR/></header><body><segment><metadata><OBJECT_NAME>ORBCOMM FM118</OBJECT_NAME><OBJECT_ID>2015-081E</OBJECT_ID><CENTER_NAME>EARTH</CENTER_NAME><REF_FRAME>TEME</REF_FRAME><TIME_SYSTEM>UTC</TIME_SYSTEM><MEAN_ELEMENT_THEORY>SGP4</MEAN_ELEMENT_THEORY></metadata><data><meanElements><EPOCH>2025-03-22T23:15:49.894272</EPOCH><MEAN_MOTION>14.57956873</MEAN_MOTION><ECCENTRICITY>.0002019</ECCENTRICITY><INCLINATION>47.0051</INCLINATION><RA_OF_ASC_NODE>333.8496</RA_OF_ASC_NODE><ARG_OF_PERICENTER>100.2375</ARG_OF_PERICENTER><MEAN_ANOMALY>259.8738</MEAN_ANOMALY></meanElements><tleParameters><EPHEMERIS_TYPE>0</EPHEMERIS_TYPE><CLASSIFICATION_TYPE>U</CLASSIFICATION_TYPE><NORAD_CAT_ID>41183</NORAD_CAT_ID><ELEMENT_SET_NO>999</ELEMENT_SET_NO><REV_AT_EPOCH>49186</REV_AT_EPOCH><BSTAR>.92815E-3</BSTAR><MEAN_MOTION_DOT>.4135E-4</MEAN_MOTION_DOT><MEAN_MOTION_DDOT>0</MEAN_MOTION_DDOT></tleParameters></data></segment></body></omm>
<omm id="CCSDS_OMM_VERS" version="2.0">
<header><CREATION_DATE/><ORIGINATOR/></header><body><segment><metadata><OBJECT_NAME>ORBCOMM FM112</OBJECT_NAME><OBJECT_ID>2015-081F</OBJECT_ID><CENTER_NAME>EARTH</CENTER_NAME><REF_FRAME>TEME</REF_FRAME><TIME_SYSTEM>UTC</TIME_SYSTEM><MEAN_ELEMENT_THEORY>SGP4</MEAN_ELEMENT_THEORY></metadata><data><meanElements><EPOCH>2025-03-22T21:35:54.911040</EPOCH><MEAN_MOTION>14.57964320</MEAN_MOTION><ECCENTRICITY>.0001038</ECCENTRICITY><INCLINATION>46.9973</INCLINATION><RA_OF_ASC_NODE>242.7940</RA_OF_ASC_NODE><ARG_OF_PERICENTER>301.9591</ARG_OF_PERICENTER><MEAN_ANOMALY>58.1193</MEAN_ANOMALY></meanElements><tleParameters><EPHEMERIS_TYPE>0</EPHEMERIS_TYPE><CLASSIFICATION_TYPE>U</CLASSIFICATION_TYPE><NORAD_CAT_ID>41184</NORAD_CAT_ID><ELEMENT_SET_NO>999</ELEMENT_SET_NO><REV_AT_EPOCH>49307</REV_AT_EPOCH><BSTAR>.83652E-3</BSTAR><MEAN_MOTION_DOT>.371E-4</MEAN_MOTION_DOT><MEAN_MOTION_DDOT>0</MEAN_MOTION_DDOT></tleParameters></data></segment></body></omm>
<omm id="CCSDS_OMM_VERS" version="2.0">
<header><CREATION_DATE/><ORIGINATOR/></header><body><segment><metadata><OBJECT_NAME>ORBCOMM FM113</OBJECT_NAME><OBJECT_ID>2015-081G</OBJECT_ID><CENTER_NAME>EARTH</CENTER_NAME><REF_FRAME>TEME</REF_FRAME><TIME_SYSTEM>UTC</TIME_SYSTEM><MEAN_ELEMENT_THEORY>SGP4</MEAN_ELEMENT_THEORY></metadata><data><meanElements><EPOCH>2025-03-22T21:02:58.376256</EPOCH><MEAN_MOTION>14.57923220</MEAN_MOTION><ECCENTRICITY>.000105</ECCENTRICITY><INCLINATION>46.9989</INCLINATION><RA_OF_ASC_NODE>243.2170</RA_OF_ASC_NODE><ARG_OF_PERICENTER>314.0747</ARG_OF_PERICENTER><MEAN_ANOMALY>46.0052</MEAN_ANOMALY></meanElements><tleParameters><EPHEMERIS_TYPE>0</EPHEMERIS_TYPE><CLASSIFICATION_TYPE>U</CLASSIFICATION_TYPE><NORAD_CAT_ID>41185</NORAD_CAT_ID><ELEMENT_SET_NO>999</ELEMENT_SET_NO><REV_AT_EPOCH>49305</REV_AT_EPOCH><BSTAR>.9165E-3</BSTAR><MEAN_MOTION_DOT>.4078E-4</MEAN_MOTION_DOT><MEAN_MOTION_DDOT>0</MEAN_MOTION_DDOT></tleParameters></data></segment></body></omm>

</ndm>
